ZHONGXING-20A           
1 37234U 10064A   18231.24247998 -.00000357  00000-0  00000+0 0  9995
2 37234   0.0264 182.4275 0000574 350.3489  12.0646  1.00270246 28360
HYLAS 1                 
1 37237U 10065A   18231.21319447 -.00000253  00000-0  00000+0 0  9990
2 37237   0.0538 293.1142 0002357  90.5545 347.0916  1.00275439 28345
INTELSAT 17 (IS-17)     
1 37238U 10065B   18231.16128916 -.00000021  00000-0  00000+0 0  9997
2 37238   0.0148 132.5448 0002296  23.6883 295.2813  1.00272755 28250
EUTELSAT KA-SAT 9A      
1 37258U 10069A   18231.06580836  .00000042  00000-0  00000+0 0  9997
2 37258   0.0160 247.4273 0002768 244.7747 227.8099  1.00272548 28153
HISPASAT 1E             
1 37264U 10070A   18230.13005069 -.00000236  00000-0  00000+0 0  9999
2 37264   0.0138 141.3581 0006016   0.3583 201.5549  1.00277428 27995
KOREASAT 6              
1 37265U 10070B   18231.02755663 -.00000382  00000-0  00000+0 0  9993
2 37265   0.0205  89.8202 0001901  42.0961 321.3440  1.00269040 28014
INTELSAT NEW DAWN       
1 37392U 11016A   18231.15465924  .00000136  00000-0  00000+0 0  9993
2 37392   0.0472 262.1512 0000786 163.1784 350.5796  1.00272703 26846
YAHSAT 1A               
1 37393U 11016B   18231.44577043  .00000082  00000-0  00000+0 0  9992
2 37393   0.0131 105.8590 0002116  42.3249  32.4998  1.00271648 26893
TELSTAR 14R             
1 37602U 11021A   18231.23628649 -.00000299  00000-0  00000+0 0  9998
2 37602   0.0146  25.5641 0001481  86.0994 237.9166  1.00272177 27127
GSAT-8                  
1 37605U 11022A   18231.51800171  .00000066  00000-0  00000+0 0  9996
2 37605   0.0442 282.8047 0003168 335.4647 311.0457  1.00274382 26572
ST-2                    
1 37606U 11022B   18231.52463164 -.00000231  00000-0  00000+0 0  9990
2 37606   0.0155 138.3455 0001784  18.1128  88.2051  1.00273896 26586
CHINASAT 10 (ZX 10)     
1 37677U 11026A   18231.24584219 -.00000371  00000-0  00000+0 0  9991
2 37677   0.0865 265.7078 0005033 260.4259   0.4036  1.00272367 26307
TIANLIAN 1-02           
1 37737U 11032A   18231.54234051  .00000008  00000-0  00000+0 0  9990
2 37737   2.8577  74.3729 0003341 143.4333 122.1100  1.00269322 26057
GSAT-12                 
1 37746U 11034A   18230.92051991 -.00000185  00000-0  00000-0 0  9991
2 37746   0.0762 274.1520 0010844 170.4619 296.9908  1.00273389 14809
SES-3                   
1 37748U 11035A   18231.49397066 -.00000121  00000-0  00000+0 0  9992
2 37748   0.0522 287.3029 0002350 210.9100 264.3879  1.00271932 26039
KAZSAT-2                
1 37749U 11035B   18231.45257483 -.00000217  00000-0  00000+0 0  9993
2 37749   0.0187 160.3030 0001747  22.5479  34.3324  1.00272726 25901
ASTRA 1N                
1 37775U 11041A   18231.15195491  .00000100  00000-0  00000+0 0  9996
2 37775   0.0544 316.3656 0003795 140.8870 304.0881  1.00270222 25733
BSAT-3C (JCSAT-110R)    
1 37776U 11041B   18231.02642255 -.00000370  00000-0  00000+0 0  9998
2 37776   0.0448 283.0328 0000159 287.3733 236.3855  1.00272419 25850
PAKSAT-1R               
1 37779U 11042A   18231.15570605  .00000134  00000-0  00000+0 0  9992
2 37779   0.0207 156.0470 0003963 328.4093 297.0381  1.00268940 25611
CHINASAT 1A (ZX 1A)     
1 37804U 11047A   18231.24248047 -.00000357  00000-0  00000+0 0  9996
2 37804   0.0239 158.4598 0001112 120.9204 265.2808  1.00270197 25411
COSMOS 2473             
1 37806U 11048A   18231.21720731 -.00000127  00000-0  00000+0 0  9996
2 37806   0.0494 111.6895 0002336  30.9890 249.5159  1.00272429 25400
SES-2                   
1 37809U 11049A   18231.48973729 -.00000215  00000-0  00000+0 0  9994
2 37809   0.0583 285.4969 0002691 210.9507 280.6288  1.00272368 25358
ARABSAT-5C              
1 37810U 11049B   18230.90049231  .00000103  00000-0  00000-0 0  9990
2 37810   0.0612   4.4456 0002847 143.6389 163.2738  1.00270865 25385
EUTELSAT 7 WEST A       
1 37816U 11051A   18231.11090286 -.00000080  00000-0  00000+0 0  9993
2 37816   0.0614   2.1654 0006452 162.4143 195.4287  1.00271858 25302
QUETZSAT 1              
1 37826U 11054A   18231.06096793 -.00000261  00000-0  00000+0 0  9991
2 37826   0.0489 291.8392 0003030 215.4759 124.9773  1.00272631 25420
INTELSAT 18 (IS-18)     
1 37834U 11056A   18230.82508222  .00000033  00000-0  00000+0 0  9996
2 37834   0.0129 110.5973 0001965  30.1117 303.4147  1.00271802 25188
EUTELSAT 16A            
1 37836U 11057A   18231.22305212  .00000084  00000-0  00000+0 0  9994
2 37836   0.0661   5.7127 0004445 143.4002 274.6927  1.00270458 25129
VIASAT-1                
1 37843U 11059A   18231.34056397 -.00000043  00000-0  00000+0 0  9990
2 37843   0.0169 112.8482 0002522  27.7697 194.4994  1.00272540 25602
ASIASAT 7               
1 37933U 11069A   18231.52812108 -.00000353  00000-0  00000+0 0  9995
2 37933   0.0510 280.8719 0001675 191.7695 150.7986  1.00274029 24798
LUCH 5A                 
1 37951U 11074B   18231.54042132 -.00000065  00000-0  00000+0 0  9995
2 37951   1.9529 144.9376 0001525 337.8831 206.6752  1.00268862 24527
NIGCOMSAT 1R            
1 38014U 11077A   18231.15657841  .00000125  00000-0  00000+0 0  9991
2 38014   0.0071 108.2366 0002525 286.1128  31.9777  1.00272745 24361
FENGYUN 2F              
1 38049U 12002A   18231.17556216 -.00000378  00000-0  00000+0 0  9995
2 38049   2.5897  78.0519 0004272 225.7130 199.0210  1.00273957 24228
SES-4                   
1 38087U 12007A   18230.71298414 -.00000188  00000-0  00000+0 0  9993
2 38087   0.0172  50.3066 0002070  93.8098  57.5681  1.00271305 23819
BEIDOU 11               
1 38091U 12008A   18231.15980615  .00000037  00000-0  00000+0 0  9991
2 38091   1.5382  64.3016 0002716 296.5141  82.7865  1.00273401 23814
INTELSAT 22 (IS-22)     
1 38098U 12011A   18230.89089466 -.00000079  00000-0  00000-0 0  9994
2 38098   0.0094  95.8570 0002568  60.3914 203.7516  1.00271277 23164
APSTAR 7                
1 38107U 12013A   18230.89077083 -.00000121  00000-0  00000-0 0  9997
2 38107   0.0189  89.7102 0002510  55.3601 219.2821  1.00271476 23507
YAHSAT 1B               
1 38245U 12016A   18230.95875937  .00000107  00000-0  00000+0 0  9996
2 38245   0.0131 190.8611 0001367 286.7997 242.3413  1.00269993 23250
JCSAT-13                
1 38331U 12023A   18230.74717304 -.00000377  00000-0  00000-0 0  9991
2 38331   0.0400 276.4273 0002467 214.2565 229.3256  1.00273781 22854
VINASAT-2               
1 38332U 12023B   18231.53335522 -.00000348  00000-0  00000+0 0  9995
2 38332   0.0433 282.5008 0001831 209.4018 159.7661  1.00273152 22957
NIMIQ 6                 
1 38342U 12026A   18231.34303618 -.00000193  00000-0  00000+0 0  9997
2 38342   0.0540 285.5024 0002045 194.7424 239.7640  1.00271904 22930
CHINASAT 2A (ZX 2A)     
1 38352U 12028A   18231.52663807 -.00000312  00000-0  00000+0 0  9992
2 38352   0.0228 147.3677 0000270  35.3396  72.9448  1.00273430 22972
INTELSAT 19 (IS-19)     
1 38356U 12030A   18230.63078104 -.00000077  00000-0  00000+0 0  9998
2 38356   0.0414 292.9389 0002993 212.0975 214.9712  1.00271900 22849
ECHOSTAR 17             
1 38551U 12035A   18230.39006428 -.00000096  00000-0  00000+0 0  9994
2 38551   0.0150 111.5087 0002162  35.7153 212.7771  1.00272510 22456
METEOSAT-10 (MSG-3)     
1 38552U 12035B   18231.03864340  .00000048  00000-0  00000+0 0  9998
2 38552   1.0505 350.1254 0002375 102.7880 258.1040  1.00280969 22547
SES-5                   
1 38652U 12036A   18231.31089969  .00000014  00000-0  00000+0 0  9990
2 38652   0.0460 273.0864 0002120 222.4601 308.9483  1.00272930 22405
TIANLIAN 1-03           
1 38730U 12040A   18231.07841509  .00000054  00000-0  00000+0 0  9995
2 38730   0.0653 230.8487 0006294 262.6427 232.7782  1.00276442 22325
INTELSAT 20 (IS-20)     
1 38740U 12043A   18229.90354750 -.00000047  00000-0  00000-0 0  9999
2 38740   0.0148 131.4980 0002099  53.3365 175.1507  1.00274857 22080
HYLAS 2                 
1 38741U 12043B   18230.00743893  .00000133  00000-0  00000+0 0  9997
2 38741   0.0438 279.8505 0001848 217.6919 222.4591  1.00271905 22174
INTELSAT 21 (IS-21)     
1 38749U 12045A   18230.25402205 -.00000305  00000-0  00000-0 0  9996
2 38749   0.0098  98.2025 0002092  39.5450 222.2561  1.00272789 21879
ASTRA 2F                
1 38778U 12051A   18231.01241691  .00000130  00000-0  00000+0 0  9994
2 38778   0.1001 250.9679 0003352 295.7545 173.2614  1.00268893 21627
GSAT-10                 
1 38779U 12051B   18230.86071354 -.00000185  00000-0  00000-0 0  9996
2 38779   0.0544 280.0572 0002708 171.3492 268.6127  1.00271625 21444
INTELSAT 23 (IS-23)     
1 38867U 12057A   18231.23740339 -.00000304  00000-0  00000+0 0  9990
2 38867   0.0127 150.2300 0001903 347.6752 222.0980  1.00272679 21440
BEIDOU 16               
1 38953U 12059A   18217.55929616 -.00000180  00000-0  00000-0 0  9997
2 38953   1.9596  81.1239 0001650  90.8531  67.2982  1.00268404 21240
LUCH 5B                 
1 38977U 12061A   18230.85770843 -.00000153  00000-0  00000+0 0  9999
2 38977   4.3914  71.7827 0002293 359.8403 188.0811  1.00270584 21509
YAMAL 300K              
1 38978U 12061B   18231.22965514  .00000052  00000-0  00000+0 0  9990
2 38978   0.0216 188.7990 0001819  53.1568 351.1796  1.00271712 21203
STAR ONE C3             
1 38991U 12062A   18231.17966080 -.00000268  00000-0  00000+0 0  9999
2 38991   0.0356 278.4610 0001975 216.5153 182.1768  1.00268937 21180
EUTELSAT 21B            
1 38992U 12062B   18231.03081490  .00000110  00000-0  00000+0 0  9993
2 38992   0.0663   5.3428 0002190 132.7450 221.9175  1.00269941 21208
ECHOSTAR 16             
1 39008U 12065A   18231.26098713 -.00000301  00000-0  00000+0 0  9999
2 39008   0.0138 106.9969 0002175  41.8966 211.1081  1.00272239 21141
CHINASAT 12 (ZX 12)     
1 39017U 12067A   18231.52454441 -.00000226  00000-0  00000+0 0  9990
2 39017   0.0155 113.8036 0002954  32.5721  97.7627  1.00273314 21041
